0 GLOBALSTAR M037
1 25652U 99012D   13282.09705833 -.00000101  00000-0  17073-4 0  2787
2 25652 051.9998 222.3772 0002428 086.2541 344.7049 12.62234586672184
0 GLOBALSTAR M037
1 25652U 99012D   13283.38215932 -.00000100  00000-0  23267-4 0  2798
2 25652 051.9998 218.4651 0002438 088.4368 064.9170 12.62234752672347
0 GLOBALSTAR M037
1 25652U 99012D   13286.15034568 -.00000060  00000-0  24304-3 0  2810
2 25652 051.9997 210.0382 0002475 092.8723 045.3625 12.62234511672699
0 GLOBALSTAR M037
1 25652U 99012D   13287.18179561 -.00000040  00000-0  35656-3 0  2828
2 25652 051.9996 206.8984 0002502 094.4450 053.0236 12.62234424672827
0 GLOBALSTAR M037
1 25652U 99012D   13288.28962047 -.00000029  00000-0  41493-3 0  2833
2 25652 051.9995 203.5260 0002474 096.4276 047.4942 12.62234459672967
0 GLOBALSTAR M037
1 25652U 99012D   13290.09827792 -.00000035  00000-0  38380-3 0  2841
2 25652 051.9992 198.0203 0002486 099.3703 347.1677 12.62234693673190
0 GLOBALSTAR M037
1 25652U 99012D   13291.14682588 -.00000048  00000-0  31149-3 0  2851
2 25652 051.9990 194.8284 0002500 101.0299 072.4734 12.62234934673324
0 GLOBALSTAR M037
1 25652U 99012D   13292.25081459 -.00000060  00000-0  24659-3 0  2867
2 25652 051.9989 191.4676 0002496 103.0764 049.4409 12.62235230673461
0 GLOBALSTAR M037
1 25652U 99012D   13293.72948464 -.00000084  00000-0  11300-3 0  2874
2 25652 051.9987 186.9663 0002516 105.3941 289.5350 12.62235494673643
0 GLOBALSTAR M037
1 25652U 99012D   13294.76030000 -.00000088  00000-0  86870-4 0  2887
2 25652 051.9987 183.8282 0002516 107.2276 294.0530 12.62235635673770
0 GLOBALSTAR M037
1 25652U 99012D   13295.78714355 -.00000089  00000-0  81872-4 0  2891
2 25652 051.9986 180.7023 0002504 108.9554 280.6205 12.62235642673905
